NORAD_CAT_ID,OBJECT_NAME,OBJECT_TYPE,EPOCH,MEAN_MOTION,ECCENTRICITY,INCLINATION,RA_OF_ASC_NODE,ARG_OF_PERICENTER,MEAN_ANOMALY,BSTAR,MEAN_MOTION_DOT,MEAN_MOTION_DDOT,TLE_LINE0,TLE_LINE1,TLE_LINE2,SEMIMAJOR_AXIS,PERIOD,APOGEE,PERIGEE,DECAYED
52676.0,STARLINK-4006,PAYLOAD,2023-08-12 13:27:17,15.08869947,0.0001291,53.2179,54.5248,83.0023,277.1116,0.00072752,0.00011319,0.0,0 STARLINK-4006,1 52676U 22053W   23224.56061646  .00011319  00000-0  72752-3 0  9996,2 52676  53.2179  54.5248 0001291  83.0023 277.1116 15.08869947 68682,6917.789,95.436,540.547,538.761,0.0
52676.0,STARLINK-4006,PAYLOAD,2023-08-13 05:21:07,15.08870925,2.19e-05,53.217,51.5519,85.9656,274.1361,0.00041138,6.271e-05,0.0,0 STARLINK-4006,1 52676U 22053W   23225.22300397  .00006271  00000-0  41138-3 0  9994,2 52676  53.2170  51.5519 0000219  85.9656 274.1361 15.08870925 68781,6917.786,95.436,539.802,539.499,0.0
52676.0,STARLINK-4006,PAYLOAD,2023-08-13 18:04:13,15.08838304,0.0001719,53.2188,49.1719,89.8491,270.2698,-0.00031986,-5.375e-05,0.0,0 STARLINK-4006,1 52676U 22053W   23225.75293417 -.00005375  00000-0 -31986-3 0  9992,2 52676  53.2188  49.1719 0001719  89.8491 270.2698 15.08838304 68865,6917.886,95.438,540.94,538.561,0.0
52676.0,STARLINK-4006,PAYLOAD,2023-08-14 13:08:51,15.08845133,0.0001459,53.2172,45.6022,90.3222,269.7937,4.3307e-05,4.01e-06,0.0,0 STARLINK-4006,1 52676U 22053W   23226.54781265  .00000401  00000-0  43307-4 0  9997,2 52676  53.2172  45.6022 0001459  90.3222 269.7937 15.08845133 68986,6917.865,95.437,540.739,538.72,0.0
52676.0,STARLINK-4006,PAYLOAD,2023-08-15 17:45:47,15.08842563,0.0001556,53.2182,40.2501,88.5528,271.5642,0.00021476,3.132e-05,0.0,0 STARLINK-4006,1 52676U 22053W   23227.74013587  .00003132  00000-0  21476-3 0  9991,2 52676  53.2182  40.2501 0001556  88.5528 271.5642 15.08842563 69165,6917.873,95.437,540.814,538.661,0.0
52676.0,STARLINK-4006,PAYLOAD,2023-08-17 11:05:49,15.08843217,0.0001808,53.2155,32.5185,79.0765,281.0431,0.00015724,2.215e-05,0.0,0 STARLINK-4006,1 52676U 22053W   23229.46237673  .00002215  00000-0  15724-3 0  9996,2 52676  53.2155  32.5185 0001808  79.0765 281.0431 15.08843217 69423,6917.871,95.437,540.986,538.485,0.0
52676.0,STARLINK-4006,PAYLOAD,2023-08-18 17:18:08,15.08841963,0.0002215,53.2128,26.8661,95.0025,265.122,5.1734e-05,5.35e-06,0.0,0 STARLINK-4006,1 52676U 22053W   23230.72093541  .00000535  00000-0  51734-4 0  9996,2 52676  53.2128  26.8661 0002215  95.0025 265.1220 15.08841963 69614,6917.874,95.437,541.272,538.207,0.0
52676.0,STARLINK-4006,PAYLOAD,2023-08-19 20:19:41,15.08848217,0.0001398,53.218,21.813,94.4016,265.7136,0.00016214,2.294e-05,0.0,0 STARLINK-4006,1 52676U 22053W   23231.84701387  .00002294  00000-0  16214-3 0  9991,2 52676  53.2180  21.8130 0001398  94.4016 265.7136 15.08848217 69781,6917.855,95.437,540.687,538.753,0.0
52676.0,STARLINK-4006,PAYLOAD,2023-08-20 10:38:10,15.08833778,0.0001478,53.2171,19.136,98.137,261.979,7.8868e-05,9.67e-06,0.0,0 STARLINK-4006,1 52676U 22053W   23232.44318232  .00000967  00000-0  78868-4 0  9990,2 52676  53.2171  19.1360 0001478  98.1370 261.9790 15.08833778 69879,6917.899,95.438,540.787,538.742,0.0
52676.0,STARLINK-4006,PAYLOAD,2023-08-20 18:35:06,15.08846652,0.0001208,53.2176,17.6489,97.4608,262.6522,0.00017174,2.447e-05,0.0,0 STARLINK-4006,1 52676U 22053W   23232.77437526  .00002447  00000-0  17174-3 0  9991,2 52676  53.2176  17.6489 0001208  97.4608 262.6522 15.08846652 69928,6917.86,95.437,540.561,538.889,0.0
52676.0,STARLINK-4006,PAYLOAD,2023-08-21 08:53:34,15.08841724,0.0001785,53.2181,14.9739,85.2341,274.8855,0.00011616,1.561e-05,0.0,0 STARLINK-4006,1 52676U 22053W   23233.37053940  .00001561  00000-0  11616-3 0  9993,2 52676  53.2181  14.9739 0001785  85.2341 274.8855 15.08841724 70012,6917.875,95.437,540.975,538.505,0.0
52676.0,STARLINK-4006,PAYLOAD,2023-08-21 16:50:30,15.08837079,0.0001484,53.2184,13.4877,84.7838,275.3323,4.2144e-05,3.83e-06,0.0,0 STARLINK-4006,1 52676U 22053W   23233.70174226  .00000383  00000-0  42144-4 0  9993,2 52676  53.2184  13.4877 0001484  84.7838 275.3323 15.08837079 70062,6917.889,95.438,540.781,538.728,0.0
52676.0,STARLINK-4006,PAYLOAD,2023-08-23 08:35:09,15.08839707,0.0001417,53.2177,6.0534,77.1582,282.9568,0.00013082,1.795e-05,0.0,0 STARLINK-4006,1 52676U 22053W   23235.35774536  .00001795  00000-0  13082-3 0  9992,2 52676  53.2177   6.0534 0001417  77.1582 282.9568 15.08839707 70313,6917.881,95.438,540.727,538.766,0.0
52676.0,STARLINK-4006,PAYLOAD,2023-08-24 08:25:56,15.08841669,0.0001437,53.2192,1.5941,95.3465,264.7691,0.00013453,1.854e-05,0.0,0 STARLINK-4006,1 52676U 22053W   23236.35134468  .00001854  00000-0  13453-3 0  9995,2 52676  53.2192   1.5941 0001437  95.3465 264.7691 15.08841669 70894,6917.875,95.437,540.734,538.746,0.0
52676.0,STARLINK-4006,PAYLOAD,2023-08-25 13:02:52,15.0884464,0.00014,53.2188,356.2418,88.7437,271.3715,0.00013847,1.917e-05,0.0,0 STARLINK-4006,1 52676U 22053W   23237.54366304  .00001917  00000-0  13847-3 0  9990,2 52676  53.2188 356.2418 0001400  88.7437 271.3715 15.08844640 71077,6917.866,95.437,540.7,538.763,0.0
52676.0,STARLINK-4006,PAYLOAD,2023-08-25 19:24:24,15.08851184,0.0001305,53.2191,355.0514,94.9732,265.1409,0.00015753,2.221e-05,0.0,0 STARLINK-4006,1 52676U 22053W   23237.80861577  .00002221  00000-0  15753-3 0  9998,2 52676  53.2191 355.0514 0001305  94.9732 265.1409 15.08851184 70684,6917.846,95.437,540.614,538.808,0.0
52676.0,STARLINK-4006,PAYLOAD,2023-08-26 08:07:30,15.0883319,0.0001311,53.2193,352.6787,56.2896,303.8221,-3.0002e-05,-7.65e-06,0.0,0 STARLINK-4006,1 52676U 22053W   23238.33854939 -.00000765  00000-0 -30002-4 0  9999,2 52676  53.2193 352.6787 0001311  56.2896 303.8221 15.08833190 70768,6917.901,95.438,540.673,538.859,0.0
52676.0,STARLINK-4006,PAYLOAD,2023-08-26 11:18:16,15.08834513,0.0001361,53.2187,352.0832,69.5666,290.5472,-7.6592e-06,-4.1e-06,0.0,0 STARLINK-4006,1 52676U 22053W   23238.47102870 -.00000410  00000-0 -76592-5 0  9996,2 52676  53.2187 352.0832 0001361  69.5666 290.5472 15.08834513 71214,6917.897,95.438,540.704,538.821,0.0
52676.0,STARLINK-4006,PAYLOAD,2023-08-27 06:22:54,15.08843624,0.0001403,53.2188,348.5131,95.2033,264.912,5.4964e-05,5.87e-06,0.0,0 STARLINK-4006,1 52676U 22053W   23239.26590380  .00000587  00000-0  54964-4 0  9992,2 52676  53.2188 348.5131 0001403  95.2033 264.9120 15.08843624 70901,6917.869,95.437,540.705,538.764,0.0
52676.0,STARLINK-4006,PAYLOAD,2023-08-27 14:19:49,15.08843269,0.0001343,53.2181,347.0224,96.5244,263.5901,7.5141e-05,9.08e-06,0.0,0 STARLINK-4006,1 52676U 22053W   23239.59710419  .00000908  00000-0  75141-4 0  9992,2 52676  53.2181 347.0224 0001343  96.5244 263.5901 15.08843269 71382,6917.87,95.437,540.664,538.806,0.0
52676.0,STARLINK-4006,PAYLOAD,2023-08-28 09:24:27,15.08840042,0.0001457,53.2186,343.4549,97.4965,262.6193,9.9903e-05,1.302e-05,0.0,0 STARLINK-4006,1 52676U 22053W   23240.39198654  .00001302  00000-0  99903-4 0  9994,2 52676  53.2186 343.4549 0001457  97.4965 262.6193 15.08840042 71078,6917.88,95.438,540.753,538.737,0.0
52676.0,STARLINK-4006,PAYLOAD,2023-08-28 15:45:59,15.08849,0.0001434,53.2187,342.2662,90.8272,269.2884,0.0002082,3.028e-05,0.0,0 STARLINK-4006,1 52676U 22053W   23240.65694190  .00003028  00000-0  20820-3 0  9997,2 52676  53.2187 342.2662 0001434  90.8272 269.2884 15.08849000 71113,6917.853,95.437,540.71,538.726,0.0
52676.0,STARLINK-4006,PAYLOAD,2023-08-28 23:42:55,15.08838556,0.0001595,53.2192,340.7803,92.1603,267.9572,8.5172e-05,1.068e-05,0.0,0 STARLINK-4006,1 52676U 22053W   23240.98814749  .00001068  00000-0  85172-4 0  9991,2 52676  53.2192 340.7803 0001595  92.1603 267.9572 15.08838556 71168,6917.885,95.438,540.853,538.646,0.0
52676.0,STARLINK-4006,PAYLOAD,2023-08-29 15:36:46,15.08846398,0.0001435,53.2187,337.8065,94.4717,265.644,0.00017148,2.443e-05,0.0,0 STARLINK-4006,1 52676U 22053W   23241.65054382  .00002443  00000-0  17148-3 0  9990,2 52676  53.2187 337.8065 0001435  94.4717 265.6440 15.08846398 71693,6917.861,95.437,540.719,538.733,0.0
52676.0,STARLINK-4006,PAYLOAD,2023-08-30 13:52:11,15.08840429,0.0001307,53.218,333.6421,84.0965,276.0176,-1.5997e-05,-5.42e-06,0.0,0 STARLINK-4006,1 52676U 22053W   23242.57790726 -.00000542  00000-0 -15997-4 0  9992,2 52676  53.2180 333.6421 0001307  84.0965 276.0176 15.08840429 71404,6917.879,95.438,540.648,538.84,0.0
52676.0,STARLINK-4006,PAYLOAD,2023-08-30 18:38:20,15.08846183,0.0001226,53.2178,332.7495,83.2598,276.8534,7.8381e-05,9.6e-06,0.0,0 STARLINK-4006,1 52676U 22053W   23242.77662377  .00000960  00000-0  78381-4 0  9992,2 52676  53.2178 332.7495 0001226  83.2598 276.8534 15.08846183 71864,6917.861,95.437,540.575,538.878,0.0
52676.0,STARLINK-4006,PAYLOAD,2023-08-31 05:46:03,15.08831131,9.45e-05,53.2178,330.6694,88.4734,271.6366,1.5045e-05,-4.8e-07,0.0,0 STARLINK-4006,1 52676U 22053W   23243.24031260 -.00000048  00000-0  15045-4 0  9992,2 52676  53.2178 330.6694 0000945  88.4734 271.6366 15.08831131 71502,6917.907,95.438,540.426,539.119,0.0
52676.0,STARLINK-4006,PAYLOAD,2023-09-01 11:58:22,15.08845624,9.94e-05,53.2175,325.0191,82.5613,277.5492,0.00027506,4.093e-05,0.0,0 STARLINK-4006,1 52676U 22053W   23244.49886934  .00004093  00000-0  27506-3 0  9993,2 52676  53.2175 325.0191 0000994  82.5613 277.5492 15.08845624 72120,6917.863,95.437,540.416,539.041,0.0
52676.0,STARLINK-4006,PAYLOAD,2023-09-01 16:44:31,15.08854659,0.0001238,53.2178,324.1266,97.7486,262.3647,0.00031311,4.701e-05,0.0,0 STARLINK-4006,1 52676U 22053W   23244.69758479  .00004701  00000-0  31311-3 0  9992,2 52676  53.2178 324.1266 0001238  97.7486 262.3647 15.08854659 71721,6917.836,95.437,540.557,538.844,0.0
52676.0,STARLINK-4006,PAYLOAD,2023-09-01 23:06:04,15.08841438,0.0001346,53.2173,322.9366,95.0579,265.0567,0.00011233,1.5e-05,0.0,0 STARLINK-4006,1 52676U 22053W   23244.96255158  .00001500  00000-0  11233-3 0  9993,2 52676  53.2173 322.9366 0001346  95.0579 265.0567 15.08841438 71763,6917.876,95.437,540.672,538.81,0.0
